{
  "type": "FeatureCollection",
  "features": [
    {
      "type": "Feature",
      "properties": {
        "norad_id": 66594,
        "name": "STARLINK-36032",
        "group": "last-30-days",
        "lat": -22.077621290243048,
        "lon": 148.1446882227196,
        "alt_km": 415.98957397886807,
        "timestamp": "2025-12-15T22:44:27.660265+00:00",
        "meta_object_name": "STARLINK-36032",
        "meta_object_id": "2025-270G",
        "meta_epoch": "2025-12-15T05:52:48.015552",
        "meta_mean_motion": 15.50598017,
        "meta_eccentricity": 0.00017948,
        "meta_inclination": 42.9988,
        "meta_ra_of_asc_node": 178.059,
        "meta_arg_of_pericenter": 273.3695,
        "meta_mean_anomaly": 86.696,
        "meta_ephemeris_type": 0,
        "meta_classification_type": "U",
        "meta_norad_cat_id": 66594,
        "meta_element_set_no": 999,
        "meta_rev_at_epoch": 454,
        "meta_bstar": 0.0013021774,
        "meta_mean_motion_dot": 0.00076858,
        "meta_mean_motion_ddot": 0,
        "tle_line1": "1 66594U 25270G   25349.24500018  .00076858  00000+0  13022-2 0  9992",
        "tle_line2": "2 66594  42.9988 178.0590 0001794 273.3695  86.6960 15.50598017  4547"
      },
      "geometry": {
        "type": "Point",
        "coordinates": [
          148.1446882227196,
          -22.077621290243048
        ]
      }
    },
    {
      "type": "Feature",
      "properties": {
        "norad_id": 66595,
        "name": "STARLINK-35711",
        "group": "last-30-days",
        "lat": -20.937838488996572,
        "lon": 149.69960570681422,
        "alt_km": 416.2652247704609,
        "timestamp": "2025-12-15T22:44:27.660276+00:00",
        "meta_object_name": "STARLINK-35711",
        "meta_object_id": "2025-270H",
        "meta_epoch": "2025-12-15T05:52:18.420960",
        "meta_mean_motion": 15.50590804,
        "meta_eccentricity": 0.00016615,
        "meta_inclination": 42.9989,
        "meta_ra_of_asc_node": 178.056,
        "meta_arg_of_pericenter": 264.335,
        "meta_mean_anomaly": 95.7321,
        "meta_ephemeris_type": 0,
        "meta_classification_type": "U",
        "meta_norad_cat_id": 66595,
        "meta_element_set_no": 999,
        "meta_rev_at_epoch": 484,
        "meta_bstar": 0.00080496495,
        "meta_mean_motion_dot": 0.00047187,
        "meta_mean_motion_ddot": 0,
        "tle_line1": "1 66595U 25270H   25349.24465765  .00047187  00000+0  80496-3 0  9995",
        "tle_line2": "2 66595  42.9989 178.0560 0001661 264.3350  95.7321 15.50590804  4848"
      },
      "geometry": {
        "type": "Point",
        "coordinates": [
          149.69960570681422,
          -20.937838488996572
        ]
      }
    },
    {
      "type": "Feature",
      "properties": {
        "norad_id": 66596,
        "name": "STARLINK-35811",
        "group": "last-30-days",
        "lat": -20.19670656047383,
        "lon": 17.48039292281874,
        "alt_km": 445.25158049457514,
        "timestamp": "2025-12-15T22:44:27.660286+00:00",
        "meta_object_name": "STARLINK-35811",
        "meta_object_id": "2025-270J",
        "meta_epoch": "2025-12-15T08:00:01.999872",
        "meta_mean_motion": 15.40688262,
        "meta_eccentricity": 0.00021258,
        "meta_inclination": 42.9997,
        "meta_ra_of_asc_node": 177.769,
        "meta_arg_of_pericenter": 266.6234,
        "meta_mean_anomaly": 133.0999,
        "meta_ephemeris_type": 0,
        "meta_classification_type": "U",
        "meta_norad_cat_id": 66596,
        "meta_element_set_no": 999,
        "meta_rev_at_epoch": 492,
        "meta_bstar": 0.00053272368,
        "meta_mean_motion_dot": 0.00022006,
        "meta_mean_motion_ddot": 0,
        "tle_line1": "1 66596U 25270J   25349.33335648  .00022006  00000+0  53272-3 0  9997",
        "tle_line2": "2 66596  42.9997 177.7690 0002125 266.6234 133.0999 15.40688262  4921"
      },
      "geometry": {
        "type": "Point",
        "coordinates": [
          17.48039292281874,
          -20.19670656047383
        ]
      }
    },
    {
      "type": "Feature",
      "properties": {
        "norad_id": 66597,
        "name": "STARLINK-35820",
        "group": "last-30-days",
        "lat": -42.19735527735643,
        "lon": 70.75344654804607,
        "alt_km": 446.0355721525402,
        "timestamp": "2025-12-15T22:44:27.660296+00:00",
        "meta_object_name": "STARLINK-35820",
        "meta_object_id": "2025-270K",
        "meta_epoch": "2025-12-15T08:00:01.999872",
        "meta_mean_motion": 15.40678,
        "meta_eccentricity": 0.00019355,
        "meta_inclination": 43.0002,
        "meta_ra_of_asc_node": 177.6486,
        "meta_arg_of_pericenter": 264.5373,
        "meta_mean_anomaly": 184.9607,
        "meta_ephemeris_type": 0,
        "meta_classification_type": "U",
        "meta_norad_cat_id": 66597,
        "meta_element_set_no": 999,
        "meta_rev_at_epoch": 492,
        "meta_bstar": 0.0007537683,
        "meta_mean_motion_dot": 0.0003129,
        "meta_mean_motion_ddot": 0,
        "tle_line1": "1 66597U 25270K   25349.33335648  .00031290  00000+0  75377-3 0  9993",
        "tle_line2": "2 66597  43.0002 177.6486 0001935 264.5373 184.9607 15.40678000  4922"
      },
      "geometry": {
        "type": "Point",
        "coordinates": [
          70.75344654804607,
          -42.19735527735643
        ]
      }
    },
    {
      "type": "Feature",
      "properties": {
        "norad_id": 66598,
        "name": "STARLINK-35981",
        "group": "last-30-days",
        "lat": -17.301907956936795,
        "lon": 154.39884845540604,
        "alt_km": 415.606092222808,
        "timestamp": "2025-12-15T22:44:27.660306+00:00",
        "meta_object_name": "STARLINK-35981",
        "meta_object_id": "2025-270L",
        "meta_epoch": "2025-12-15T05:50:49.994016",
        "meta_mean_motion": 15.50578636,
        "meta_eccentricity": 0.00015186,
        "meta_inclination": 42.999,
        "meta_ra_of_asc_node": 178.0473,
        "meta_arg_of_pericenter": 290.6463,
        "meta_mean_anomaly": 69.4235,
        "meta_ephemeris_type": 0,
        "meta_classification_type": "U",
        "meta_norad_cat_id": 66598,
        "meta_element_set_no": 999,
        "meta_rev_at_epoch": 457,
        "meta_bstar": 0.001433442,
        "meta_mean_motion_dot": 0.00084665,
        "meta_mean_motion_ddot": 0,
        "tle_line1": "1 66598U 25270L   25349.24363419  .00084665  00000+0  14334-2 0  9990",
        "tle_line2": "2 66598  42.9990 178.0473 0001518 290.6463  69.4235 15.50578636  4575"
      },
      "geometry": {
        "type": "Point",
        "coordinates": [
          154.39884845540604,
          -17.301907956936795
        ]
      }
    },
    {
      "type": "Feature",
      "properties": {
        "norad_id": 66599,
        "name": "STARLINK-35930",
        "group": "last-30-days",
        "lat": -15.999832744993002,
        "lon": 156.0019650432483,
        "alt_km": 416.1111837088374,
        "timestamp": "2025-12-15T22:44:27.660317+00:00",
        "meta_object_name": "STARLINK-35930",
        "meta_object_id": "2025-270M",
        "meta_epoch": "2025-12-15T05:50:20.078016",
        "meta_mean_motion": 15.50605229,
        "meta_eccentricity": 4.876e-05,
        "meta_inclination": 42.9988,
        "meta_ra_of_asc_node": 178.0452,
        "meta_arg_of_pericenter": 253.3544,
        "meta_mean_anomaly": 106.7263,
        "meta_ephemeris_type": 0,
        "meta_classification_type": "U",
        "meta_norad_cat_id": 66599,
        "meta_element_set_no": 999,
        "meta_rev_at_epoch": 473,
        "meta_bstar": 0.0015226275,
        "meta_mean_motion_dot": 0.00090102,
        "meta_mean_motion_ddot": 0,
        "tle_line1": "1 66599U 25270M   25349.24328794  .00090102  00000+0  15226-2 0  9992",
        "tle_line2": "2 66599  42.9988 178.0452 0000487 253.3544 106.7263 15.50605229  4733"
      },
      "geometry": {
        "type": "Point",
        "coordinates": [
          156.0019650432483,
          -15.999832744993002
        ]
      }
    },
    {
      "type": "Feature",
      "properties": {
        "norad_id": 66600,
        "name": "STARLINK-35980",
        "group": "last-30-days",
        "lat": -14.769666462226802,
        "lon": 157.4831357474726,
        "alt_km": 415.2295623704904,
        "timestamp": "2025-12-15T22:44:27.660330+00:00",
        "meta_object_name": "STARLINK-35980",
        "meta_object_id": "2025-270N",
        "meta_epoch": "2025-12-15T05:49:49.946016",
        "meta_mean_motion": 15.50599957,
        "meta_eccentricity": 0.00028037,
        "meta_inclination": 42.9985,
        "meta_ra_of_asc_node": 178.0419,
        "meta_arg_of_pericenter": 273.1309,
        "meta_mean_anomaly": 86.923,
        "meta_ephemeris_type": 0,
        "meta_classification_type": "U",
        "meta_norad_cat_id": 66600,
        "meta_element_set_no": 999,
        "meta_rev_at_epoch": 463,
        "meta_bstar": 0.0011246255,
        "meta_mean_motion_dot": 0.0006625,
        "meta_mean_motion_ddot": 0,
        "tle_line1": "1 66600U 25270N   25349.24293919  .00066250  00000+0  11246-2 0  9990",
        "tle_line2": "2 66600  42.9985 178.0419 0002803 273.1309  86.9230 15.50599957  4631"
      },
      "geometry": {
        "type": "Point",
        "coordinates": [
          157.4831357474726,
          -14.769666462226802
        ]
      }
    }
  ]
}